Name,Address,City,State,Zip,ID
‭Windsor Fine Jewelers‬,2635 Washington Road, Augusta ,Georgia,30904,‭WINDSORFINEJEWELERS‬2635WASHINGTONROADAUGUSTAGEORGIA30904
‭Tom Cook Jeweler‬,150 South Beach Street, Daytona Beach ,Florida,32114,‭TOMCOOKJEWELER‬150SOUTHBEACHSTREETDAYTONABEACHFLORIDA32114
‭Bhindi Jewelers‬,"2213 Galleria Way, Glendale Galleria, Suite # L-001", Glendale ,California,91210,‭BHINDIJEWELERS‬2213GALLERIAWAYGLENDALEGALLERIASUITE#L-001GLENDALECALIFORNIA91210
‭Tapper's Jewelry‬,"27716 Novi Road, Twelve Oaks Mall", N,Michigan,48377,‭TAPPER'SJEWELRY‬27716NOVIROADTWELVEOAKSMALLNMICHIGAN48377
‭Rolex Boutique Mayors‬,"4200 Conroy Road, The Mall at Millenia, Suite J-272", Orlando ,Florida,32839,‭ROLEXBOUTIQUEMAYORS‬4200CONROYROADTHEMALLATMILLENIASUITEJ-272ORLANDOFLORIDA32839
‭Thom Duma Fine Jewelers‬,115 West Market Street, Warren ,Ohio,44481,‭THOMDUMAFINEJEWELERS‬115WESTMARKETSTREETWARRENOHIO44481
‭Fink's Jewelers‬,"6910 Fayetteville Road, The Streets at Southpoint, Suite #160", Durham ,North Carolina,27713,‭FINK'SJEWELERS‬6910FAYETTEVILLEROADTHESTREETSATSOUTHPOINTSUITE#160DURHAMNORTHCAROLINA27713
‭Lenkersdorfer‬,8053 Tysons Corner Center, Mc Lean ,Virginia,22102,‭LENKERSDORFER‬8053TYSONSCORNERCENTERMCLEANVIRGINIA22102
‭Weston Jewelers‬,1728 Main Street, Weston ,Florida,33326,‭WESTONJEWELERS‬1728MAINSTREETWESTONFLORIDA33326
‭Meridian Jewelers‬,525 East Cooper Avenue, Aspen ,Colorado,81611,‭MERIDIANJEWELERS‬525EASTCOOPERAVENUEASPENCOLORADO81611
‭B.C. Clark‬,101 Park Avenue, Oklahoma City ,Oklahoma,73102,‭B.C.CLARK‬101PARKAVENUEOKLAHOMACITYOKLAHOMA73102
‭Walters & Hogsett Jewelers‬,"2425 Canyon Boulevard, Suite J", Boulder ,Colorado,80302,‭WALTERS&HOGSETTJEWELERS‬2425CANYONBOULEVARDSUITEJBOULDERCOLORADO80302
‭Tourneau - Bucherer‬,"1100 South Hayes St, Space J03, Fashion Centre @ Pentagon City", Arlington ,Virginia,22202,‭TOURNEAU-BUCHERER‬1100SOUTHHAYESSTSPACEJ03FASHIONCENTRE@PENTAGONCITYARLINGTONVIRGINIA22202
‭Rolex Boutique Gearys‬,"10250 Santa Monica Boulevard, Westfield Century City, Suite # 1375", Los Angeles ,California,90067,‭ROLEXBOUTIQUEGEARYS‬10250SANTAMONICABOULEVARDWESTFIELDCENTURYCITYSUITE#1375LOSANGELESCALIFORNIA90067
‭Watches of Switzerland‬,"7875 Montgomery Road, Kenwood Towne Center", Cincinnati ,Ohio,45236,‭WATCHESOFSWITZERLAND‬7875MONTGOMERYROADKENWOODTOWNECENTERCINCINNATIOHIO45236
‭Fink's Jewelers‬,"11800 West Broad Street, Short Pump Town Center, Suite #1240", Richmond ,Virginia,23233,‭FINK'SJEWELERS‬11800WESTBROADSTREETSHORTPUMPTOWNCENTERSUITE#1240RICHMONDVIRGINIA23233
‭Sissy's Log Cabin‬,1825 North Grant Street, Little Rock ,Arkansas,72207,‭SISSY'SLOGCABIN‬1825NORTHGRANTSTREETLITTLEROCKARKANSAS72207
‭De Vons Jewelers‬,13981 South Virginia Street #402, AReno ,Nevada,89511,‭DEVONSJEWELERS‬13981SOUTHVIRGINIASTREET#402ARENONEVADA89511
‭Ben Bridge Jeweler‬,305 Los Cerritos Center, Cerritos ,California,90703,‭BENBRIDGEJEWELER‬305LOSCERRITOSCENTERCERRITOSCALIFORNIA90703
‭Hartgers Jewelers‬,699 Wyckoff Avenue, Wyckoff ,New Jersey,07481,‭HARTGERSJEWELERS‬699WYCKOFFAVENUEWYCKOFFNEWJERSEY07481
‭London Jewelers‬,47 Main Street, Southampton ,New York,11968,‭LONDONJEWELERS‬47MAINSTREETSOUTHAMPTONNEWYORK11968
‭Rolex Boutique Fourtané‬,"7007 Friars Road, Fashion Valley Mall, Suite 390", ASan Diego ,California,92108,‭ROLEXBOUTIQUEFOURTANÉ‬7007FRIARSROADFASHIONVALLEYMALLSUITE390ASANDIEGOCALIFORNIA92108
‭Pav & Broome Jewelers‬,1912 25th Avenue, Gulfport ,Mississippi,39501,‭PAV&BROOMEJEWELERS‬191225THAVENUEGULFPORTMISSISSIPPI39501
‭Tourneau - Bucherer‬,"100 Huntington Avenue, Copley Place, Suite C-007", Boston ,Massachusetts,02116,‭TOURNEAU-BUCHERER‬100HUNTINGTONAVENUECOPLEYPLACESUITEC-007BOSTONMASSACHUSETTS02116
‭Lorilil Jewelers‬,"1500 Main Street, Tower Square", Springfield ,Massachusetts,01115,‭LORILILJEWELERS‬1500MAINSTREETTOWERSQUARESPRINGFIELDMASSACHUSETTS01115
‭R.F. Moeller Jeweler‬,5020 France Avenue, E,Minnesota,55410,‭R.F.MOELLERJEWELER‬5020FRANCEAVENUEEMINNESOTA55410
‭Alter's Gem Jewelry‬,3155 Dowlen Road, Beaumont ,Texas,77706,‭ALTER'SGEMJEWELRY‬3155DOWLENROADBEAUMONTTEXAS77706
‭Rolex Boutique Luxury Swiss‬,135 N.E. 39th Street, Miami ,Florida,33137,‭ROLEXBOUTIQUELUXURYSWISS‬135N.E.39THSTREETMIAMIFLORIDA33137
‭Long's Jewelers‬,"60, A South Avenue", Burlington ,Massachusetts,01803,‭LONG'SJEWELERS‬60ASOUTHAVENUEBURLINGTONMASSACHUSETTS01803
‭Hal Davis Jewelers‬,921 West Jefferson Street, Boise ,Idaho,83702,‭HALDAVISJEWELERS‬921WESTJEFFERSONSTREETBOISEIDAHO83702
‭Brockhaus Jewelry‬,2107 West Main, Norman ,Oklahoma,73069,‭BROCKHAUSJEWELRY‬2107WESTMAINNORMANOKLAHOMA73069
‭Rummele's Jewelers‬,234 South Adams Street, Green Bay ,Wisconsin,54301,‭RUMMELE'SJEWELERS‬234SOUTHADAMSSTREETGREENBAYWISCONSIN54301
‭Christopher's Fine Jewelry‬,11412 Ocean Highway, Pawleys Island ,South Carolina,29585,‭CHRISTOPHER'SFINEJEWELRY‬11412OCEANHIGHWAYPAWLEYSISLANDSOUTHCAROLINA29585
‭J.M. Edwards Fine Jewelry‬,1137 Kildaire Farm Road, Cary ,North Carolina,27511,‭J.M.EDWARDSFINEJEWELRY‬1137KILDAIREFARMROADCARYNORTHCAROLINA27511
‭Mayors Jewelers‬,"140 University Town Center Drive, The Mall at University Town Center", Sarasota ,Florida,34243,‭MAYORSJEWELERS‬140UNIVERSITYTOWNCENTERDRIVETHEMALLATUNIVERSITYTOWNCENTERSARASOTAFLORIDA34243
‭Maxon Fine Jewelry‬,"2850 East Battlefield, Suite 100", Springfield ,Missouri,65804,‭MAXONFINEJEWELRY‬2850EASTBATTLEFIELDSUITE100SPRINGFIELDMISSOURI65804
‭Fakier Jewelers‬,7947 Main Street, Houma ,Louisiana,70360,‭FAKIERJEWELERS‬7947MAINSTREETHOUMALOUISIANA70360
‭Deutsch & Deutsch‬,"6007 N, E Zac Lentz Parkway", Victoria ,Texas,77904,‭DEUTSCH&DEUTSCH‬6007NEZACLENTZPARKWAYVICTORIATEXAS77904
‭Ben Bridge Jeweler‬,"8505 Park Meadows Center Drive, Park Meadows Center, Suite 2076", Lone Tree ,Colorado,80124,‭BENBRIDGEJEWELER‬8505PARKMEADOWSCENTERDRIVEPARKMEADOWSCENTERSUITE2076LONETREECOLORADO80124
‭Reeds Jewelers‬,"926 Inspiration Drive, Mayfaire Town Center", Wilmington ,North Carolina,28405,‭REEDSJEWELERS‬926INSPIRATIONDRIVEMAYFAIRETOWNCENTERWILMINGTONNORTHCAROLINA28405
‭Tourneau - Bucherer‬,"630 Old Country Road, Roosevelt Field Mall, Suite 1100", Garden City ,New York,11530,‭TOURNEAU-BUCHERER‬630OLDCOUNTRYROADROOSEVELTFIELDMALLSUITE1100GARDENCITYNEWYORK11530
‭Ben Bridge Jeweler‬,1330 5th Avenue, Seattle ,Washington,98101,‭BENBRIDGEJEWELER‬13305THAVENUESEATTLEWASHINGTON98101
‭Ben Bridge Jeweler‬,"9518 S, W Washington Square Road, Washington Square", Portland ,Oregon,97223,‭BENBRIDGEJEWELER‬9518SWWASHINGTONSQUAREROADWASHINGTONSQUAREPORTLANDOREGON97223
‭Bhindi Jewelers‬,18508 Pioneer Boulevard, Artesia ,California,90701,‭BHINDIJEWELERS‬18508PIONEERBOULEVARDARTESIACALIFORNIA90701
‭De Vons Jewelers‬,"220 Lincoln Center, Lincoln Center", Stockton ,California,95207,‭DEVONSJEWELERS‬220LINCOLNCENTERLINCOLNCENTERSTOCKTONCALIFORNIA95207
‭The Diamond Cellar‬,3805 Green Hills Village Drive, Nashville ,Tennessee,37215,‭THEDIAMONDCELLAR‬3805GREENHILLSVILLAGEDRIVENASHVILLETENNESSEE37215
‭Pieter Andries‬,2525 East Southlake Boulevard, Southlake ,Texas,76092,‭PIETERANDRIES‬2525EASTSOUTHLAKEBOULEVARDSOUTHLAKETEXAS76092
‭Lee Perla Jewelers‬,"193, B Riverside Square, The Shops at Riverside", Hackensack ,New Jersey,07601,‭LEEPERLAJEWELERS‬193BRIVERSIDESQUARETHESHOPSATRIVERSIDEHACKENSACKNEWJERSEY07601
‭Tourneau - Bucherer‬,"5495 Tamiami Trail North, Waterside Shops at Pelican Bay", Naples ,Florida,34108,‭TOURNEAU-BUCHERER‬5495TAMIAMITRAILNORTHWATERSIDESHOPSATPELICANBAYNAPLESFLORIDA34108
‭Windsor Jewelers‬,"6809, D Phillips Place Court", Charlotte ,North Carolina,28210,‭WINDSORJEWELERS‬6809DPHILLIPSPLACECOURTCHARLOTTENORTHCAROLINA28210
‭Lee Michaels Fine Jewelry‬,"15900 La Cantera Pkwy, The Shops at La Cantera, Suite #3370", San Antonio ,Texas,78256,‭LEEMICHAELSFINEJEWELRY‬15900LACANTERAPKWYTHESHOPSATLACANTERASUITE#3370SANANTONIOTEXAS78256
‭Davis Jewelers‬,9901 Forest Green Boulevard, Louisville ,Kentucky,40223,‭DAVISJEWELERS‬9901FORESTGREENBOULEVARDLOUISVILLEKENTUCKY40223
‭Lee Michaels Fine Jewelry‬,"2201 Q Street N, EA, BQ Uptown, Suite 9", FAlbuquerque ,New Mexico,87110,‭LEEMICHAELSFINEJEWELRY‬2201QSTREETNEABQUPTOWNSUITE9FALBUQUERQUENEWMEXICO87110
‭David Gardner's‬,911 University Drive East, College Station ,Texas,77840,‭DAVIDGARDNER'S‬911UNIVERSITYDRIVEEASTCOLLEGESTATIONTEXAS77840
‭Aucoin-Hart Jewelers‬,1525 Metairie Road, Metairie ,Louisiana,70005,‭AUCOIN-HARTJEWELERS‬1525METAIRIEROADMETAIRIELOUISIANA70005
‭Fink's Jewelers‬,1950 Gunbarrel Road, Chattanooga ,Tennessee,37421,‭FINK'SJEWELERS‬1950GUNBARRELROADCHATTANOOGATENNESSEE37421
‭Gearys Beverly Hills‬,"351 North Beverly Drive, Dept. A", Beverly Hills ,California,90210,‭GEARYSBEVERLYHILLS‬351NORTHBEVERLYDRIVEDEPT.ABEVERLYHILLSCALIFORNIA90210
‭Brown & Company Jewelers‬,674 Holcomb Bridge Road, Roswell ,Georgia,30076,‭BROWN&COMPANYJEWELERS‬674HOLCOMBBRIDGEROADROSWELLGEORGIA30076
‭Radcliffe Jewelers‬,"800 Kenilworth Drive, The Shops at Kenilworth, Suite 872", Towson ,Maryland,21204,‭RADCLIFFEJEWELERS‬800KENILWORTHDRIVETHESHOPSATKENILWORTHSUITE872TOWSONMARYLAND21204
‭R.F. Moeller Jeweler‬,2065 Ford Parkway, Saint ,Minnesota,55116,‭R.F.MOELLERJEWELER‬2065FORDPARKWAYSAINTMINNESOTA55116
‭Precision Watches & Jewelry‬,"2500 Moreland Road, Willow Grove Park Mall, Suite 1101", Willow Grove ,Pennsylvania,19090,‭PRECISIONWATCHES&JEWELRY‬2500MORELANDROADWILLOWGROVEPARKMALLSUITE1101WILLOWGROVEPENNSYLVANIA19090
‭Gunderson's Jewelers‬,"17255 Davenport Street, Village Pointe, Suite 111", Omaha ,Nebraska,68118,‭GUNDERSON'SJEWELERS‬17255DAVENPORTSTREETVILLAGEPOINTESUITE111OMAHANEBRASKA68118
‭Underwood Jewelers‬,2044 San Marco Boulevard, Jacksonville ,Florida,32207,‭UNDERWOODJEWELERS‬2044SANMARCOBOULEVARDJACKSONVILLEFLORIDA32207
‭Fink's Jewelers‬,"4400 Sharon Road, South, Park Mall, Suite 199", Charlotte ,North Carolina,28211,‭FINK'SJEWELERS‬4400SHARONROADSOUTHPARKMALLSUITE199CHARLOTTENORTHCAROLINA28211
‭Mayors Jewelers‬,"2472 East Sunrise Boulevard, The Galleria, Suite 2160", Ft. Lauderdale ,Florida,33304,‭MAYORSJEWELERS‬2472EASTSUNRISEBOULEVARDTHEGALLERIASUITE2160FT.LAUDERDALEFLORIDA33304
‭Kimball's Jewelers‬,6464 Kingston Pike, Knoxville ,Tennessee,37919,‭KIMBALL'SJEWELERS‬6464KINGSTONPIKEKNOXVILLETENNESSEE37919
‭O.C. Tanner‬,15 South State Street, Salt Lake City ,Utah,84111,‭O.C.TANNER‬15SOUTHSTATESTREETSALTLAKECITYUTAH84111
‭Deutsch & Deutsch‬,"8889 Gateway Boulevard West, Suite 1840", El Paso ,Texas,79925,‭DEUTSCH&DEUTSCH‬8889GATEWAYBOULEVARDWESTSUITE1840ELPASOTEXAS79925
‭Blakeman's Fine Jewelry‬,3202 Pinnacle Hills Parkway, Rogers ,Arkansas,72758,‭BLAKEMAN'SFINEJEWELRY‬3202PINNACLEHILLSPARKWAYROGERSARKANSAS72758
‭Lee Michaels Fine Jewelry‬,7560 Corporate Boulevard, Baton Rouge ,Louisiana,70809,‭LEEMICHAELSFINEJEWELRY‬7560CORPORATEBOULEVARDBATONROUGELOUISIANA70809
‭Lee Michaels Fine Jewelry‬,4235 Ambassador Caffery Parkway, Lafayette ,Louisiana,70508,‭LEEMICHAELSFINEJEWELRY‬4235AMBASSADORCAFFERYPARKWAYLAFAYETTELOUISIANA70508
‭Tourneau - Bucherer‬,"2435 Kaanapali Parkway, Suite H9", Lahaina ,Hawaii,96761,‭TOURNEAU-BUCHERER‬2435KAANAPALIPARKWAYSUITEH9LAHAINAHAWAII96761
‭Razny Jewelers‬,1700 Green Bay Road, Highland Park ,Illinois,60035,‭RAZNYJEWELERS‬1700GREENBAYROADHIGHLANDPARKILLINOIS60035
‭Morgan's Jewelers‬,50-C Peninsula Center, Rolling Hills Estate ,California,90274,‭MORGAN'SJEWELERS‬50-CPENINSULACENTERROLLINGHILLSESTATECALIFORNIA90274
‭Leonardo Jewelers‬,"665 Middlesex Avenue, #125", Metuchen ,New Jersey,08840,‭LEONARDOJEWELERS‬665MIDDLESEXAVENUE#125METUCHENNEWJERSEY08840
‭Hyde Park Jewelers‬,"3000 East 1st Avenue, Cherry Creek Shopping Center, Suite 243", Denver ,Colorado,80206,‭HYDEPARKJEWELERS‬3000EAST1STAVENUECHERRYCREEKSHOPPINGCENTERSUITE243DENVERCOLORADO80206
‭Hyde Park Jewelers‬,"817 Newport Center Drive, Fashion Island", Newport Beach ,California,92660,‭HYDEPARKJEWELERS‬817NEWPORTCENTERDRIVEFASHIONISLANDNEWPORTBEACHCALIFORNIA92660
‭Tourneau - Bucherer‬,"9700 Collins Avenue, Bal Harbour Shops, Suite 210", Bal Harbour ,Florida,33154,‭TOURNEAU-BUCHERER‬9700COLLINSAVENUEBALHARBOURSHOPSSUITE210BALHARBOURFLORIDA33154
‭Ben Bridge Jeweler‬,143 Bellevue Square, Bellevue ,Washington,98004,‭BENBRIDGEJEWELER‬143BELLEVUESQUAREBELLEVUEWASHINGTON98004
‭Eiseman Jewels‬,"8687 North Central Expressway, North, Park Center, Suite #514", Dallas ,Texas,75225,‭EISEMANJEWELS‬8687NORTHCENTRALEXPRESSWAYNORTHPARKCENTERSUITE#514DALLASTEXAS75225
‭Alexander's Jewelers‬,3701 Mall Drive, Texa,Texas,Texas75501,‭ALEXANDER'SJEWELERS‬3701MALLDRIVETEXATEXASTEXAS75501
‭Newtons Jewelers‬,701 Garrison Avenue, Fort Smith ,Arkansas,72901,‭NEWTONSJEWELERS‬701GARRISONAVENUEFORTSMITHARKANSAS72901
‭Rolex Boutique J. Licht & Sons‬,"2855 Stevens Creek Boulevard, Valley Fair, Suite 1039", Santa Clara ,California,95050,‭ROLEXBOUTIQUEJ.LICHT&SONS‬2855STEVENSCREEKBOULEVARDVALLEYFAIRSUITE1039SANTACLARACALIFORNIA95050
‭Rolex Boutique Tourneau‬,"701 North Michigan Avenue, Warwick Allerton", Chicago ,Illinois,60611,‭ROLEXBOUTIQUETOURNEAU‬701NORTHMICHIGANAVENUEWARWICKALLERTONCHICAGOILLINOIS60611
‭Jackson Jewelers‬,225 Liberty Street N, ESalem ,Oregon,97301,‭JACKSONJEWELERS‬225LIBERTYSTREETNESALEMOREGON97301
‭Wickersham Company‬,7784 North Blackstone, Fresno ,California,93720,‭WICKERSHAMCOMPANY‬7784NORTHBLACKSTONEFRESNOCALIFORNIA93720
‭Tourneau - Bucherer‬,"125 Westchester Avenue, Suite 2340", AWhite Plains ,New York,10601,‭TOURNEAU-BUCHERER‬125WESTCHESTERAVENUESUITE2340AWHITEPLAINSNEWYORK10601
‭O.C. Tanner‬,416 Main Street, Park City ,Utah,84060,‭O.C.TANNER‬416MAINSTREETPARKCITYUTAH84060
‭Long's Jewelers‬,"250 Granite Street, South Shore Plaza", Braintree ,Massachusetts,02184,‭LONG'SJEWELERS‬250GRANITESTREETSOUTHSHOREPLAZABRAINTREEMASSACHUSETTS02184
‭Razny Jewelers‬,109 East Oak Street, Chicago ,Illinois,60611,‭RAZNYJEWELERS‬109EASTOAKSTREETCHICAGOILLINOIS60611
‭Skeies Jewelers‬,10 Oakway Center, Eugene ,Oregon,97401,‭SKEIESJEWELERS‬10OAKWAYCENTEREUGENEOREGON97401
‭James & Williams‬,7020 West Cermak Road, Berwyn ,Illinois,60402,‭JAMES&WILLIAMS‬7020WESTCERMAKROADBERWYNILLINOIS60402
‭Mayors Jewelers‬,"4834 River City Drive, St. Johns Town Center, Suite 119", Jacksonville ,Florida,32246,‭MAYORSJEWELERS‬4834RIVERCITYDRIVEST.JOHNSTOWNCENTERSUITE119JACKSONVILLEFLORIDA32246
‭Moretti's Fine Jewelry‬,14230 San Pedro Avenue, San Antonio ,Texas,78232,‭MORETTI'SFINEJEWELRY‬14230SANPEDROAVENUESANANTONIOTEXAS78232
‭Lucido Fine Jewelry‬,42825 Schoenherr Road, Sterling Heig,Michigan,48313,‭LUCIDOFINEJEWELRY‬42825SCHOENHERRROADSTERLINGHEIGMICHIGAN48313
‭Schiffman's Jewelers‬,811 Friendly Center Road, Greensboro ,North Carolina,27408,‭SCHIFFMAN'SJEWELERS‬811FRIENDLYCENTERROADGREENSBORONORTHCAROLINA27408
‭Ben Bridge Jeweler‬,"1450 Ala Moana Boulevard, Ala Moana Shopping Center, Suite 2212", BHonolulu ,Hawaii,96814,‭BENBRIDGEJEWELER‬1450ALAMOANABOULEVARDALAMOANASHOPPINGCENTERSUITE2212BHONOLULUHAWAII96814
‭Ben Bridge Jeweler‬,"3000 184th Street S, WAlderwood Mall, Suite 320", Lynnwood ,Washington,98037,‭BENBRIDGEJEWELER‬3000184THSTREETSWALDERWOODMALLSUITE320LYNNWOODWASHINGTON98037
‭Reis-Nichols Jewelers‬,789 U.S. 31 North, Greenwood ,Indiana,46142,‭REIS-NICHOLSJEWELERS‬789U.S.31NORTHGREENWOODINDIANA46142
‭Reeds Jewelers‬,"5488 South S Padre Dr, La Palmera Mall, Suite 1438",Corpus Christi ,Texas,78411,‭REEDSJEWELERS‬5488SOUTHSPADREDRLAPALMERAMALLSUITE1438CORPUSCHRISTITEXAS78411
‭Rolex Boutique Tourneau‬,"845 Market Street, Westfield San Francisco Centre, Suite 129", San Francisco ,California,94103,‭ROLEXBOUTIQUETOURNEAU‬845MARKETSTREETWESTFIELDSANFRANCISCOCENTRESUITE129SANFRANCISCOCALIFORNIA94103
‭Lenox Jewelers‬,2500 Black Rock Turnpike, Fairfield ,Connecticut,06825,‭LENOXJEWELERS‬2500BLACKROCKTURNPIKEFAIRFIELDCONNECTICUT06825
‭Springer's Jewelers‬,"100 Market Street, Suite 101", Portsmouth ,New Hampshire,03801,‭SPRINGER'SJEWELERS‬100MARKETSTREETSUITE101PORTSMOUTHNEWHAMPSHIRE03801
‭Crown Jewelers‬,200 Williams Street, Fredericksburg ,Virginia,22401,‭CROWNJEWELERS‬200WILLIAMSSTREETFREDERICKSBURGVIRGINIA22401
‭Fourtané‬,Ocean Avenue at Lincoln Street, Carmel By The Sea ,California,93921,‭FOURTANÉ‬OCEANAVENUEATLINCOLNSTREETCARMELBYTHESEACALIFORNIA93921
‭Tapper's Jewelry‬,6337 Orchard Lake Road, West Bloomfi,Michigan,48322,‭TAPPER'SJEWELRY‬6337ORCHARDLAKEROADWESTBLOOMFIMICHIGAN48322
‭Mountz Jewelers‬,"3780 Trindle Road, Chelsea Square", Camp Hill ,Pennsylvania,17011,‭MOUNTZJEWELERS‬3780TRINDLEROADCHELSEASQUARECAMPHILLPENNSYLVANIA17011
‭Fink's Jewelers‬,"4321 Lassiter at North Hills, Suite 120", Raleigh ,North Carolina,27609,‭FINK'SJEWELERS‬4321LASSITERATNORTHHILLSSUITE120RALEIGHNORTHCAROLINA27609
‭Watches of Switzerland‬,"20 Hudson Yards, Hudson Yards - The Shops, Suite , R, U #115", ANew York ,New York,10001,‭WATCHESOFSWITZERLAND‬20HUDSONYARDSHUDSONYARDS-THESHOPSSUITERU#115ANEWYORKNEWYORK10001
‭Bernie Robbins Jewelers‬,775 East Lancaster Avenue, Villanova ,Pennsylvania,19085,‭BERNIEROBBINSJEWELERS‬775EASTLANCASTERAVENUEVILLANOVAPENNSYLVANIA19085
‭Sissy's Log Cabin‬,404 South Grove Park Road, Memphis ,Tennessee,38117,‭SISSY'SLOGCABIN‬404SOUTHGROVEPARKROADMEMPHISTENNESSEE38117
‭Haltom's Jewelers‬,317 Main Street, Fort Worth ,Texas,76102,‭HALTOM'SJEWELERS‬317MAINSTREETFORTWORTHTEXAS76102
‭Kelley Jewelers‬,"107 West Main Street, P.O. Box 689", Weatherford ,Oklahoma,73096,‭KELLEYJEWELERS‬107WESTMAINSTREETP.O.BOX689WEATHERFORDOKLAHOMA73096
‭Deutsch of Laredo‬,"5300 San Dario Avenue, Mall Del Norte - Center Court, Suite 122", Laredo ,Texas,78041,‭DEUTSCHOFLAREDO‬5300SANDARIOAVENUEMALLDELNORTE-CENTERCOURTSUITE122LAREDOTEXAS78041
‭Watches of Switzerland‬,"136 West Market, Mall of America, Suite W136", Bloomin,Minnesota,55425,‭WATCHESOFSWITZERLAND‬136WESTMARKETMALLOFAMERICASUITEW136BLOOMINMINNESOTA55425
‭Lasker Jewelers‬,101 First Street S, WRoche,Minnesota,55902,‭LASKERJEWELERS‬101FIRSTSTREETSWROCHEMINNESOTA55902
‭Rolex Boutique Tourneau Forum Shops‬,"3500 Las Vegas Boulevard South, Forum Shops, Suite B07", BLas Vegas ,Nevada,89109,‭ROLEXBOUTIQUETOURNEAUFORUMSHOPS‬3500LASVEGASBOULEVARDSOUTHFORUMSHOPSSUITEB07BLASVEGASNEVADA89109
‭Mayors Jewelers‬,"8001 South Orange Blossom Trail, Florida Mall, Suite #484", Orlando ,Florida,32809,‭MAYORSJEWELERS‬8001SOUTHORANGEBLOSSOMTRAILFLORIDAMALLSUITE#484ORLANDOFLORIDA32809
‭Liljenquist & Beckstead‬,"7101 Democracy Boulevard, 2412 Montgomery Mall", Bethesda ,Maryland,20817,‭LILJENQUIST&BECKSTEAD‬7101DEMOCRACYBOULEVARD2412MONTGOMERYMALLBETHESDAMARYLAND20817
‭Bachendorf's‬,"13350 Dallas Parkway, Galleria Dallas, #1415", Dallas ,Texas,75240,‭BACHENDORF'S‬13350DALLASPARKWAYGALLERIADALLAS#1415DALLASTEXAS75240
‭Mayors Jewelers‬,5155 Avalon Boulevard, Alpharetta ,Georgia,30009,‭MAYORSJEWELERS‬5155AVALONBOULEVARDALPHARETTAGEORGIA30009
‭Alvin Goldfarb Jeweler‬,305 Bellevue Way N, EBellevue ,Washington,98004,‭ALVINGOLDFARBJEWELER‬305BELLEVUEWAYNEBELLEVUEWASHINGTON98004
‭Robert C. Wesley Jewelers‬,7088 East Fifth Avenue, Scottsdale ,Arizona,85251,‭ROBERTC.WESLEYJEWELERS‬7088EASTFIFTHAVENUESCOTTSDALEARIZONA85251
‭Rolex Boutique Tourneau‬,"3333 Bristol Street, South Coast Plaza, Suite # 2001", Costa Mesa ,California,92626,‭ROLEXBOUTIQUETOURNEAU‬3333BRISTOLSTREETSOUTHCOASTPLAZASUITE#2001COSTAMESACALIFORNIA92626
‭Radcliffe Jewelers‬,1848 Reisterstown Road, Baltimore ,Maryland,21208,‭RADCLIFFEJEWELERS‬1848REISTERSTOWNROADBALTIMOREMARYLAND21208
‭Thomas Markle Jewelers‬,"9595 Six Pines Drive, Suite 950", The Woodlands ,Texas,77380,‭THOMASMARKLEJEWELERS‬9595SIXPINESDRIVESUITE950THEWOODLANDSTEXAS77380
‭Kranich's Jewelers‬,515 East Plank Road, Altoona ,Pennsylvania,16602,‭KRANICH'SJEWELERS‬515EASTPLANKROADALTOONAPENNSYLVANIA16602
‭Ben Bridge Jeweler‬,"1236 Tyler Street, Galleria at Tyler, Space G6", Riverside ,California,92503,‭BENBRIDGEJEWELER‬1236TYLERSTREETGALLERIAATTYLERSPACEG6RIVERSIDECALIFORNIA92503
‭H. L. Gross & Bro.‬,840 Franklin Avenue, Garden City ,New York,11530,‭H.L.GROSS&BRO.‬840FRANKLINAVENUEGARDENCITYNEWYORK11530
‭Deutsch Jewelers Houston‬,3747 Westheimer Road, Houston ,Texas,77027,‭DEUTSCHJEWELERSHOUSTON‬3747WESTHEIMERROADHOUSTONTEXAS77027
‭Treiber & Straub‬,14740 West Capitol Drive, Brookfield ,Wisconsin,53005,‭TREIBER&STRAUB‬14740WESTCAPITOLDRIVEBROOKFIELDWISCONSIN53005
‭Govberg Jewelers‬,1529 Walnut Street, Philadelphia ,Pennsylvania,19102,‭GOVBERGJEWELERS‬1529WALNUTSTREETPHILADELPHIAPENNSYLVANIA19102
‭London Jewelers‬,"2046 Northern Boulevard, Americana Manhasset", Manhasset ,New York,11030,‭LONDONJEWELERS‬2046NORTHERNBOULEVARDAMERICANAMANHASSETMANHASSETNEWYORK11030
‭Schiffman's Jewelers‬,137 South Stratford Road, Winston Salem ,North Carolina,27104,‭SCHIFFMAN'SJEWELERS‬137SOUTHSTRATFORDROADWINSTONSALEMNORTHCAROLINA27104
‭Heller Jewelers‬,"6000 Bollinger Canyon Road, City Center Bishop Ranch, Suite 1506", San Ramon ,California,94583,‭HELLERJEWELERS‬6000BOLLINGERCANYONROADCITYCENTERBISHOPRANCHSUITE1506SANRAMONCALIFORNIA94583
‭Schwanke-Kasten Jewelers‬,417 East Silver Spring Drive, Milwaukee ,Wisconsin,53217,‭SCHWANKE-KASTENJEWELERS‬417EASTSILVERSPRINGDRIVEMILWAUKEEWISCONSIN53217
‭Tivol‬,220 Nichols Road, Kansas City ,Missouri,64112,‭TIVOL‬220NICHOLSROADKANSASCITYMISSOURI64112
‭Ben Bridge Jeweler‬,"4505 La Jolla Village Drive, Westfield U, TC, Suite #C-19", San Diego ,California,92122,‭BENBRIDGEJEWELER‬4505LAJOLLAVILLAGEDRIVEWESTFIELDUTCSUITE#C-19SANDIEGOCALIFORNIA92122
"‭Vanscoy, Maurer & Bash Diamond Jewelers‬",830 Plaza Boulevard, Lancaster ,Pennsylvania,17601,‭VANSCOYMAURER&BASHDIAMONDJEWELERS‬830PLAZABOULEVARDLANCASTERPENNSYLVANIA17601
‭Lux Bond & Green‬,1 One Mohegan Sun Boulevard, Uncasville ,Connecticut,06382,‭LUXBOND&GREEN‬1ONEMOHEGANSUNBOULEVARDUNCASVILLECONNECTICUT06382
‭Reis-Nichols Jewelers‬,3535 East 86th Street, Indianapolis ,Indiana,46240,‭REIS-NICHOLSJEWELERS‬3535EAST86THSTREETINDIANAPOLISINDIANA46240
‭Brown & Company‬,3225 Peachtree Road N, EAtlanta ,Georgia,30305,‭BROWN&COMPANY‬3225PEACHTREEROADNEATLANTAGEORGIA30305
‭Martin Jewelers‬,12 North Avenue West, Cranford ,New Jersey,07016,‭MARTINJEWELERS‬12NORTHAVENUEWESTCRANFORDNEWJERSEY07016
‭Gruno's Diamonds‬,7311 West Towne Way, Madison ,Wisconsin,53719,‭GRUNO'SDIAMONDS‬7311WESTTOWNEWAYMADISONWISCONSIN53719
‭Drenon Jewelry Company‬,3727 South Bolger Road, Independence ,Missouri,64055,‭DRENONJEWELRYCOMPANY‬3727SOUTHBOLGERROADINDEPENDENCEMISSOURI64055
‭McCaskill & Company Fine Jewelry‬,13390 Highway 98 West, Destin ,Florida,32550,‭MCCASKILL&COMPANYFINEJEWELRY‬13390HIGHWAY98WESTDESTINFLORIDA32550
‭Fink's Jewelers‬,"16745 Birkdale Commons Parkway, Unit 2", Huntersville ,North Carolina,28078,‭FINK'SJEWELERS‬16745BIRKDALECOMMONSPARKWAYUNIT2HUNTERSVILLENORTHCAROLINA28078
‭Hing Wa Lee Jewelers‬,1635 South Del Mar Avenue, San Gabriel ,California,91776,‭HINGWALEEJEWELERS‬1635SOUTHDELMARAVENUESANGABRIELCALIFORNIA91776
‭Hing Wa Lee Jewelers‬,1569 South Fairway Drive Suite #128, Walnut ,California,91789,‭HINGWALEEJEWELERS‬1569SOUTHFAIRWAYDRIVESUITE#128WALNUTCALIFORNIA91789
‭Mayors Jewelers‬,"342 San Lorenzo Ave.Village of Merrick Park, Suite 1005", Coral Gables ,Florida,33146,‭MAYORSJEWELERS‬342SANLORENZOAVE.VILLAGEOFMERRICKPARKSUITE1005CORALGABLESFLORIDA33146
‭Liljenquist & Beckstead‬,"2001 International Drive, Galleria at Tysons I, I, Suite 1798", MMc Lean ,Virginia,22102,‭LILJENQUIST&BECKSTEAD‬2001INTERNATIONALDRIVEGALLERIAATTYSONSIISUITE1798MMCLEANVIRGINIA22102
‭Long's Jewelers‬,35 Cross Street, Peabody ,Massachusetts,01960,‭LONG'SJEWELERS‬35CROSSSTREETPEABODYMASSACHUSETTS01960
‭William Barthman Jewelers‬,1118 Kings Highway, Brooklyn ,New York,11229,‭WILLIAMBARTHMANJEWELERS‬1118KINGSHIGHWAYBROOKLYNNEWYORK11229
‭Benari Jewelers‬,3606 West Chester Pike, Newtown Square ,Pennsylvania,19073,‭BENARIJEWELERS‬3606WESTCHESTERPIKENEWTOWNSQUAREPENNSYLVANIA19073
‭Underwood Jewelers‬,"330 A1, A North, Suite 204", Ponte Vedra Beach ,Florida,32082,‭UNDERWOODJEWELERS‬330A1ANORTHSUITE204PONTEVEDRABEACHFLORIDA32082
‭Martin Binder Jeweler‬,650 West Morthland Drive, Valparaiso ,Indiana,46385,‭MARTINBINDERJEWELER‬650WESTMORTHLANDDRIVEVALPARAISOINDIANA46385
‭Loring & Company‬,800 Airport Road, Huntsville ,Alabama,35802,‭LORING&COMPANY‬800AIRPORTROADHUNTSVILLEALABAMA35802
‭Lucido Fine Jewelry of Rochester‬,312 South Main Street, Roches,Michigan,48307,‭LUCIDOFINEJEWELRYOFROCHESTER‬312SOUTHMAINSTREETROCHESMICHIGAN48307
‭Lee Michaels Fine Jewelry‬,"3301 Veterans Boulevard, Lakeside Shopping Center, Suite 110", BMetairie ,Louisiana,70002,‭LEEMICHAELSFINEJEWELRY‬3301VETERANSBOULEVARDLAKESIDESHOPPINGCENTERSUITE110BMETAIRIELOUISIANA70002
‭Lux Bond & Green‬,136 Main Street, Westport ,Connecticut,06880,‭LUXBOND&GREEN‬136MAINSTREETWESTPORTCONNECTICUT06880
‭Betteridge Jewelers‬,239 Greenwich Avenue, Greenwich ,Connecticut,06830,‭BETTERIDGEJEWELERS‬239GREENWICHAVENUEGREENWICHCONNECTICUT06830
‭Bromberg & Company‬,131 Summit Boulevard, Birmingham ,Alabama,35243,‭BROMBERG&COMPANY‬131SUMMITBOULEVARDBIRMINGHAMALABAMA35243
‭Lux Bond & Green‬,"140 Glastonbury Boulevard, Sommerset Square", Glastonbury ,Connecticut,06033,‭LUXBOND&GREEN‬140GLASTONBURYBOULEVARDSOMMERSETSQUAREGLASTONBURYCONNECTICUT06033
‭Fink's Jewelers‬,"1025 Emmet Street North, Barracks Road Shopping Center", Charlottesville ,Virginia,22903,‭FINK'SJEWELERS‬1025EMMETSTREETNORTHBARRACKSROADSHOPPINGCENTERCHARLOTTESVILLEVIRGINIA22903
‭Rolex Boutique London‬,"1200 Morris Turnpike, The Mall at Short Hills, Suite #205", Short Hills ,New Jersey,07078,‭ROLEXBOUTIQUELONDON‬1200MORRISTURNPIKETHEMALLATSHORTHILLSSUITE#205SHORTHILLSNEWJERSEY07078
‭deBoulle Diamond & Jewelry‬,"4444 Westheimer Road, River Oak District, Suite F105", Houston ,Texas,77027,‭DEBOULLEDIAMOND&JEWELRY‬4444WESTHEIMERROADRIVEROAKDISTRICTSUITEF105HOUSTONTEXAS77027
‭James & Sons‬,110 South Washington Street, Naperville ,Illinois,60540,‭JAMES&SONS‬110SOUTHWASHINGTONSTREETNAPERVILLEILLINOIS60540
‭Orr's Jewelers‬,5857 Forbes Avenue, Pittsburgh ,Pennsylvania,15217,‭ORR'SJEWELERS‬5857FORBESAVENUEPITTSBURGHPENNSYLVANIA15217
‭Tourneau - Bucherer Time Dome‬,"3500 Las Vegas Blvd South, The Forum Shops, Suite #E18", ALas Vegas ,Nevada,89109,‭TOURNEAU-BUCHERERTIMEDOME‬3500LASVEGASBLVDSOUTHTHEFORUMSHOPSSUITE#E18ALASVEGASNEVADA89109
‭Watches of Switzerland‬,60 Greene Street, New York ,New York,10012,‭WATCHESOFSWITZERLAND‬60GREENESTREETNEWYORKNEWYORK10012
‭Bromberg & Company‬,2800 Cahaba Road, Mountain Brook ,Alabama,35223,‭BROMBERG&COMPANY‬2800CAHABAROADMOUNTAINBROOKALABAMA35223
‭Wilson & Son Jewelers‬,10 Spencer Place, Scarsdale ,New York,10583,‭WILSON&SONJEWELERS‬10SPENCERPLACESCARSDALENEWYORK10583
‭The Diamond Cellar‬,3960 New Bond Street, Columbus ,Ohio,43219,‭THEDIAMONDCELLAR‬3960NEWBONDSTREETCOLUMBUSOHIO43219
‭Providence Diamond Company‬,"105 Hillside Road, Garden City Center", Cranston ,Rhode Island,02920,‭PROVIDENCEDIAMONDCOMPANY‬105HILLSIDEROADGARDENCITYCENTERCRANSTONRHODEISLAND02920
‭Kerns Fine Jewelry‬,214 Lorton Avenue, Burlingame ,California,94010,‭KERNSFINEJEWELRY‬214LORTONAVENUEBURLINGAMECALIFORNIA94010
‭Kiefer Jewelers‬,24144 State Road 54, Lutz ,Florida,33559,‭KIEFERJEWELERS‬24144STATEROAD54LUTZFLORIDA33559
‭Jack Lewis Jewelers‬,1704 Eastland Drive, Bloomington ,Illinois,61704,‭JACKLEWISJEWELERS‬1704EASTLANDDRIVEBLOOMINGTONILLINOIS61704
‭Kirk Jewelers‬,"701 South Miami Ave, Brickell City Centre, Suite 327-A", Miami ,Florida,33131,‭KIRKJEWELERS‬701SOUTHMIAMIAVEBRICKELLCITYCENTRESUITE327-AMIAMIFLORIDA33131
‭B.C. Clark‬,"5801 N, W Grand Boulevard", Oklahoma City ,Oklahoma,73118,‭B.C.CLARK‬5801NWGRANDBOULEVARDOKLAHOMACITYOKLAHOMA73118
‭Merkley Kendrick Jewelers‬,138 Chenoweth Lane, Louisville ,Kentucky,40207,‭MERKLEYKENDRICKJEWELERS‬138CHENOWETHLANELOUISVILLEKENTUCKY40207
‭Korman Fine Jewelry‬,"5011 Burnet Road, Suite 100", Austin ,Texas,78756,‭KORMANFINEJEWELRY‬5011BURNETROADSUITE100AUSTINTEXAS78756
‭Adler's‬,722 Canal Street, New Orleans ,Louisiana,70130,‭ADLER'S‬722CANALSTREETNEWORLEANSLOUISIANA70130
‭Wickersham Company‬,6521 Truxtun Avenue, Bakersfield ,California,93309,‭WICKERSHAMCOMPANY‬6521TRUXTUNAVENUEBAKERSFIELDCALIFORNIA93309
‭Hale's Jewelers‬,761 Verdae Boulevard, Greenville ,South Carolina,29607,‭HALE'SJEWELERS‬761VERDAEBOULEVARDGREENVILLESOUTHCAROLINA29607
‭Murphy Jewelers‬,16 Jetson Drive, Hamburg ,Pennsylvania,19526,‭MURPHYJEWELERS‬16JETSONDRIVEHAMBURGPENNSYLVANIA19526
‭Rolex Boutique Tourneau‬,29-35 9th Ave, New York ,New York,10014,‭ROLEXBOUTIQUETOURNEAU‬29-359THAVENEWYORKNEWYORK10014
‭Long's Jewelers‬,323 Daniel Webster Highway, Nashua ,New Hampshire,03060,‭LONG'SJEWELERS‬323DANIELWEBSTERHIGHWAYNASHUANEWHAMPSHIRE03060
‭Benari Jewelers‬,299 Main Street, Exton ,Pennsylvania,19341,‭BENARIJEWELERS‬299MAINSTREETEXTONPENNSYLVANIA19341
‭J.R. Dunn Jewelers‬,4210 North Federal Highway, Lighthouse Point ,Florida,33064,‭J.R.DUNNJEWELERS‬4210NORTHFEDERALHIGHWAYLIGHTHOUSEPOINTFLORIDA33064
‭Hyde Park Jewelers‬,"7014 East Camelback Road, Scottsdale Fashion Square, Suite #1092", Scottsdale ,Arizona,85251,‭HYDEPARKJEWELERS‬7014EASTCAMELBACKROADSCOTTSDALEFASHIONSQUARESUITE#1092SCOTTSDALEARIZONA85251
‭Rolex Boutique Long's‬,8 Newbury Street, Boston ,Massachusetts,02116,‭ROLEXBOUTIQUELONG'S‬8NEWBURYSTREETBOSTONMASSACHUSETTS02116
‭London Jewelers‬,2 Main Street, East Hampton ,New York,11937,‭LONDONJEWELERS‬2MAINSTREETEASTHAMPTONNEWYORK11937
‭Rolex Boutique Gearys‬,"395 Santa Monica Place, Santa Monica Place, Space 159", Santa Monica ,California,90401,‭ROLEXBOUTIQUEGEARYS‬395SANTAMONICAPLACESANTAMONICAPLACESPACE159SANTAMONICACALIFORNIA90401
‭Flora Gems‬,101 North Water Street, Decatur ,Illinois,62523,‭FLORAGEMS‬101NORTHWATERSTREETDECATURILLINOIS62523
‭Cristiani's Jewelers‬,203 West Wall, Midland ,Texas,79701,‭CRISTIANI'SJEWELERS‬203WESTWALLMIDLANDTEXAS79701
‭Bucherer 1888 Time Machine‬,12 East 57th Street, New York ,New York,10022,‭BUCHERER1888TIMEMACHINE‬12EAST57THSTREETNEWYORKNEWYORK10022
‭Bruce G. Weber Precious Jewels‬,1523 East 15th Street, Tulsa ,Oklahoma,74120,‭BRUCEG.WEBERPRECIOUSJEWELS‬1523EAST15THSTREETTULSAOKLAHOMA74120
‭Tiny Jewel Box‬,1155 Connecticut Avenue N, WWashington District of ,Columbia,20036,‭TINYJEWELBOX‬1155CONNECTICUTAVENUENWWASHINGTONDISTRICTOFCOLUMBIA20036
‭Gunderson's Jewelers‬,5601 28th Avenue South, Fargo ,North Dakota,58104,‭GUNDERSON'SJEWELERS‬560128THAVENUESOUTHFARGONORTHDAKOTA58104
‭Kravit Jewelers‬,3187 Long Beach Road, Oceanside ,New York,11572,‭KRAVITJEWELERS‬3187LONGBEACHROADOCEANSIDENEWYORK11572
‭Sissy's Log Cabin‬,2900 Parkwood Road, Jonesboro ,Arkansas,72401,‭SISSY'SLOGCABIN‬2900PARKWOODROADJONESBOROARKANSAS72401
‭Exclusively Diamonds‬,1601 Adams Street, Man,Minnesota,56001,‭EXCLUSIVELYDIAMONDS‬1601ADAMSSTREETMANMINNESOTA56001
‭Clarkes Jewelers‬,4847 Line Avenue, Shreveport ,Louisiana,71106,‭CLARKESJEWELERS‬4847LINEAVENUESHREVEPORTLOUISIANA71106
‭Lee Michaels Fine Jewelry‬,940 Highland Colony Parkway, Ridgeland ,Mississippi,39157,‭LEEMICHAELSFINEJEWELRY‬940HIGHLANDCOLONYPARKWAYRIDGELANDMISSISSIPPI39157
‭Leonardo Jewelers‬,35 East Front Street, Red Bank ,New Jersey,07701,‭LEONARDOJEWELERS‬35EASTFRONTSTREETREDBANKNEWJERSEY07701
‭Clarkson Jewelers‬,1306 Clarkson Clayton Center, Ellisville ,Missouri,63011,‭CLARKSONJEWELERS‬1306CLARKSONCLAYTONCENTERELLISVILLEMISSOURI63011
‭C.D. Peacock‬,E-140 Woodfield Mall, Schaumburg ,Illinois,60173,‭C.D.PEACOCK‬E-140WOODFIELDMALLSCHAUMBURGILLINOIS60173
‭Medawar Fine Jewelry‬,3093 South Linden Road, Fl,Michigan,48507,‭MEDAWARFINEJEWELRY‬3093SOUTHLINDENROADFLMICHIGAN48507
‭Bernie Robbins Jewelers‬,507 New Road, Somers Point ,New Jersey,08244,‭BERNIEROBBINSJEWELERS‬507NEWROADSOMERSPOINTNEWJERSEY08244
‭Murphy Jewelers Lehigh Valley (R)‬,"948 Lehigh Valley Lifestyle Center, Lehigh Valley Mall", Whitehall ,Pennsylvania,18052,‭MURPHYJEWELERSLEHIGHVALLEY(R)‬948LEHIGHVALLEYLIFESTYLECENTERLEHIGHVALLEYMALLWHITEHALLPENNSYLVANIA18052
‭Ben Bridge Jeweler‬,"81 Westfield Southcenter, Southcenter Mall", Tukwila ,Washington,98188,‭BENBRIDGEJEWELER‬81WESTFIELDSOUTHCENTERSOUTHCENTERMALLTUKWILAWASHINGTON98188
‭James Free Jewelers‬,3100 Far Hills Avenue, Dayton ,Ohio,45429,‭JAMESFREEJEWELERS‬3100FARHILLSAVENUEDAYTONOHIO45429
‭Azzi Jewelers‬,3007 East Saginaw Street, Lans,Michigan,48912,‭AZZIJEWELERS‬3007EASTSAGINAWSTREETLANSMICHIGAN48912
‭Springer's Jewelers‬,580 Congress Street, Portland ,Maine,04101,‭SPRINGER'SJEWELERS‬580CONGRESSSTREETPORTLANDMAINE04101
‭Mayors Jewelers‬,"3393 Peachtree Road N, ELenox Square, Suite #3038", BAtlanta ,Georgia,30326,‭MAYORSJEWELERS‬3393PEACHTREEROADNELENOXSQUARESUITE#3038BATLANTAGEORGIA30326
‭The Richter & Phillips Company‬,601 Main Street, Cincinnati ,Ohio,45202,‭THERICHTER&PHILLIPSCOMPANY‬601MAINSTREETCINCINNATIOHIO45202
‭Brinker's Jewelers‬,111 South Green River Road, Evansville ,Indiana,47715,‭BRINKER'SJEWELERS‬111SOUTHGREENRIVERROADEVANSVILLEINDIANA47715
‭Simons Jewelers‬,8141 Maryland Avenue, Clayton ,Missouri,63105,‭SIMONSJEWELERS‬8141MARYLANDAVENUECLAYTONMISSOURI63105
‭Lux Bond & Green‬,"46 La, Salle Road", West Hartford ,Connecticut,06107,‭LUXBOND&GREEN‬46LASALLEROADWESTHARTFORDCONNECTICUT06107
‭Wixon Jewelers‬,9955 Lyndale Avenue South, Bloomin,Minnesota,55420,‭WIXONJEWELERS‬9955LYNDALEAVENUESOUTHBLOOMINMINNESOTA55420
‭Bucherer 1888‬,"1095 6th Avenue, Avenue of the Americas at Bryant Park", New York ,New York,10036,‭BUCHERER1888‬10956THAVENUEAVENUEOFTHEAMERICASATBRYANTPARKNEWYORKNEWYORK10036
‭Hamilton Jewelers‬,"3101 P, GA Boulevard", Palm Beach Gardens ,Florida,33410,‭HAMILTONJEWELERS‬3101PGABOULEVARDPALMBEACHGARDENSFLORIDA33410
‭Coffin & Trout Jewelers‬,"7131 West Ray Road, Casa Paloma Plaza, Suite 18", Chandler ,Arizona,85226,‭COFFIN&TROUTJEWELERS‬7131WESTRAYROADCASAPALOMAPLAZASUITE18CHANDLERARIZONA85226
‭Williams Jewelers of Englewood‬,5095 South Broadway, Englewood ,Colorado,80113,‭WILLIAMSJEWELERSOFENGLEWOOD‬5095SOUTHBROADWAYENGLEWOODCOLORADO80113
‭Rolex Boutique Deutsch & Deutsch‬,"5015 Westheimer Road, The Galleria, Suite A2371", Houston ,Texas,77056,‭ROLEXBOUTIQUEDEUTSCH&DEUTSCH‬5015WESTHEIMERROADTHEGALLERIASUITEA2371HOUSTONTEXAS77056
‭Rolex Boutique Watches of Switzerland‬,"3131 Las Vegas Boulevard South, Wynn Las Vegas", Las Vegas ,Nevada,89109,‭ROLEXBOUTIQUEWATCHESOFSWITZERLAND‬3131LASVEGASBOULEVARDSOUTHWYNNLASVEGASLASVEGASNEVADA89109
‭Polacheck's Jewelers‬,4719 Commons Way, Calabasas ,California,91302,‭POLACHECK'SJEWELERS‬4719COMMONSWAYCALABASASCALIFORNIA91302
‭Razny Jewelers‬,1501 West Lake Street, Addison ,Illinois,60101,‭RAZNYJEWELERS‬1501WESTLAKESTREETADDISONILLINOIS60101
‭Wempe Jewelers‬,700 Fifth Avenue, New York ,New York,10019,‭WEMPEJEWELERS‬700FIFTHAVENUENEWYORKNEWYORK10019
‭Shreve & Co.‬,"329 El Camino Real & Quarry Road, Stanford Shopping Center", Palo Alto ,California,94304,‭SHREVE&CO.‬329ELCAMINOREAL&QUARRYROADSTANFORDSHOPPINGCENTERPALOALTOCALIFORNIA94304
‭A.R. Morris‬,3848 Kennett Pike, Greenville ,Delaware,19807,‭A.R.MORRIS‬3848KENNETTPIKEGREENVILLEDELAWARE19807
‭Henne Jewelers‬,5501 Walnut Street, Pittsburgh ,Pennsylvania,15232,‭HENNEJEWELERS‬5501WALNUTSTREETPITTSBURGHPENNSYLVANIA15232
‭Ben Bridge Jeweler‬,"21540 Hawthorne Boulevard, Del Amo Fashion Center, #417", BTorrance ,California,90503,‭BENBRIDGEJEWELER‬21540HAWTHORNEBOULEVARDDELAMOFASHIONCENTER#417BTORRANCECALIFORNIA90503
‭Fink's Jewelers‬,"1612 Laskin Road, Suite 776", Virginia Beach ,Virginia,23451,‭FINK'SJEWELERS‬1612LASKINROADSUITE776VIRGINIABEACHVIRGINIA23451
‭James & Sons‬,"15234 South La, Grange Road", Orland Park ,Illinois,60462,‭JAMES&SONS‬15234SOUTHLAGRANGEROADORLANDPARKILLINOIS60462
‭Mayors Jewelers‬,"19575 Biscayne Blvd, Aventura Mall, Suite 177", Aventura ,Florida,33180,‭MAYORSJEWELERS‬19575BISCAYNEBLVDAVENTURAMALLSUITE177AVENTURAFLORIDA33180
‭Goldsmith Gallery Jewelers‬,,903 Shiloh Crossing Blvd.Billings ,Montana,59102,‭GOLDSMITHGALLERYJEWELERS‬903SHILOHCROSSINGBLVD.BILLINGSMONTANA59102
‭Tivol‬,"4721 West 119th Street, Hawthorne Plaza", Overland Park ,Kansas,66209,‭TIVOL‬4721WEST119THSTREETHAWTHORNEPLAZAOVERLANDPARKKANSAS66209
‭Hamilton Jewelers‬,92 Nassau Street, Princeton ,New Jersey,08542,‭HAMILTONJEWELERS‬92NASSAUSTREETPRINCETONNEWJERSEY08542
‭M.P. Demetre Jewelers‬,253 King Street, Charleston ,South Carolina,29401,‭M.P.DEMETREJEWELERS‬253KINGSTREETCHARLESTONSOUTHCAROLINA29401
‭Thomas Markle Jewelers‬,"947 North Gessner Road, Suite A150", Houston ,Texas,77024,‭THOMASMARKLEJEWELERS‬947NORTHGESSNERROADSUITEA150HOUSTONTEXAS77024
‭De Vons Jewelers‬,"1151 Galleria Blvd, Westfield Galleria at Roseville, Suite #1080", Roseville ,California,95678,‭DEVONSJEWELERS‬1151GALLERIABLVDWESTFIELDGALLERIAATROSEVILLESUITE#1080ROSEVILLECALIFORNIA95678
‭Tesorini‬,"3600 Las Vegas Boulevard South, Bellagio Hotel & Casino", Las Vegas ,Nevada,89109,‭TESORINI‬3600LASVEGASBOULEVARDSOUTHBELLAGIOHOTEL&CASINOLASVEGASNEVADA89109
‭Gerald Peters‬,"2655 Richmond Avenue, Suite 2095, Staten Island Mall, Suite 2095", Staten Island ,New York,10314,‭GERALDPETERS‬2655RICHMONDAVENUESUITE2095STATENISLANDMALLSUITE2095STATENISLANDNEWYORK10314
‭Ben Bridge Jeweler‬,"801 S, W 5th Avenue5th Ave & Yamhill", Portland ,Oregon,97204,‭BENBRIDGEJEWELER‬801SW5THAVENUE5THAVE&YAMHILLPORTLANDOREGON97204
‭Gruno's Diamonds‬,801 North Perryville Road, Rockford ,Illinois,61107,‭GRUNO'SDIAMONDS‬801NORTHPERRYVILLEROADROCKFORDILLINOIS61107
‭Leeds & Son‬,73-670 El Paseo, Palm Desert ,California,92260,‭LEEDS&SON‬73-670ELPASEOPALMDESERTCALIFORNIA92260
‭Lucido Fine Jewelry‬,250 North Old Woodward Avenue, Birming,Michigan,48009,‭LUCIDOFINEJEWELRY‬250NORTHOLDWOODWARDAVENUEBIRMINGMICHIGAN48009
‭Paul's Jewelry‬,600 Silverstone Road, Lafayette ,Louisiana,70508,‭PAUL'SJEWELRY‬600SILVERSTONEROADLAFAYETTELOUISIANA70508
‭Josephs Jewelers‬,5425 Mills Civic Parkway, West Des Moines ,Iowa,50266,‭JOSEPHSJEWELERS‬5425MILLSCIVICPARKWAYWESTDESMOINESIOWA50266
‭Packouz Jewelers‬,522 S W Broadway, Portland ,Oregon,97205,‭PACKOUZJEWELERS‬522SWBROADWAYPORTLANDOREGON97205
‭Morgan's Jewelers‬,22200 Hawthorne Boulevard, Torrance ,California,90505,‭MORGAN'SJEWELERS‬22200HAWTHORNEBOULEVARDTORRANCECALIFORNIA90505
‭Rolex Boutique LV Luxury‬,"3720 Las Vegas Boulevard South, The Shops at Crystals, Suite 122", Las Vegas ,Nevada,89158,‭ROLEXBOUTIQUELVLUXURY‬3720LASVEGASBOULEVARDSOUTHTHESHOPSATCRYSTALSSUITE122LASVEGASNEVADA89158
‭Persin & Robbin Jewelers‬,24 South Dunton Avenue, Arlington Heights ,Illinois,60005,‭PERSIN&ROBBINJEWELERS‬24SOUTHDUNTONAVENUEARLINGTONHEIGHTSILLINOIS60005
‭Roman Jewelers‬,500 Commons Way, Bridgewater ,New Jersey,08807,‭ROMANJEWELERS‬500COMMONSWAYBRIDGEWATERNEWJERSEY08807
‭Bachendorf's‬,"5175 Monahans Avenue, The Shops at Clearfork", Fort Worth ,Texas,76109,‭BACHENDORF'S‬5175MONAHANSAVENUETHESHOPSATCLEARFORKFORTWORTHTEXAS76109
‭Bucherer 1888‬,510 Madison Avenue, New York ,New York,10022,‭BUCHERER1888‬510MADISONAVENUENEWYORKNEWYORK10022
‭Rolex Boutique Gearys‬,360 North Rodeo Drive, Beverly Hills ,California,90210,‭ROLEXBOUTIQUEGEARYS‬360NORTHRODEODRIVEBEVERLYHILLSCALIFORNIA90210
‭Lorilil Jewelers‬,107-34 71st Avenue, Forest Hills ,New York,11375,‭LORILILJEWELERS‬107-3471STAVENUEFORESTHILLSNEWYORK11375
‭Adler's‬,"2937 Veteran's Memorial Boulevard, Suite B", Metairie ,Louisiana,70002,‭ADLER'S‬2937VETERAN'SMEMORIALBOULEVARDSUITEBMETAIRIELOUISIANA70002
‭C.D. Peacock‬,172 Oakbrook Center, Oak Brook ,Illinois,60523,‭C.D.PEACOCK‬172OAKBROOKCENTEROAKBROOKILLINOIS60523
‭Lee Michaels Fine Jewelry‬,"7400 San Pedro Avenue, North Star Mall, Suite 422", San Antonio ,Texas,78216,‭LEEMICHAELSFINEJEWELRY‬7400SANPEDROAVENUENORTHSTARMALLSUITE422SANANTONIOTEXAS78216
‭Alson Jewelers‬,28149 Chagrin Boulevard, Cleveland ,Ohio,44122,‭ALSONJEWELERS‬28149CHAGRINBOULEVARDCLEVELANDOHIO44122
‭Gunderson's Jewelers‬,"4830 Sergeant Rd, Lakeport Commons", Sioux City ,Iowa,51106,‭GUNDERSON'SJEWELERS‬4830SERGEANTRDLAKEPORTCOMMONSSIOUXCITYIOWA51106
‭Liljenquist & Beckstead‬,"8075 Leesburg Pike, Shops at Fairfax Sq Salon 140", Vienna ,Virginia,22182,‭LILJENQUIST&BECKSTEAD‬8075LEESBURGPIKESHOPSATFAIRFAXSQSALON140VIENNAVIRGINIA22182
‭Frank Adams Jewelers‬,"1475 Western Avenue, Stuyvesant Plaza", Albany ,New York,12203,‭FRANKADAMSJEWELERS‬1475WESTERNAVENUESTUYVESANTPLAZAALBANYNEWYORK12203
‭The Diamond Cellar‬,6280 Sawmill Road, Dublin ,Ohio,43017,‭THEDIAMONDCELLAR‬6280SAWMILLROADDUBLINOHIO43017
‭Mayors Jewelers‬,"1455 N, W 107th Avenue, Miami International Mall, #264", Miami ,Florida,33172,‭MAYORSJEWELERS‬1455NW107THAVENUEMIAMIINTERNATIONALMALL#264MIAMIFLORIDA33172
‭Deutsch of McAllen‬,"2109 South 10th Street, Suite 20", Mc Allen ,Texas,78503,‭DEUTSCHOFMCALLEN‬2109SOUTH10THSTREETSUITE20MCALLENTEXAS78503
‭Manfredi‬,72 Elm Street, New Canaan ,Connecticut,06840,‭MANFREDI‬72ELMSTREETNEWCANAANCONNECTICUT06840
‭Sheiban Jewelers‬,16938 Pearl Road, Cleveland ,Ohio,44136,‭SHEIBANJEWELERS‬16938PEARLROADCLEVELANDOHIO44136
‭Shreve & Co.‬,150 Post Street, San Francisco ,California,94108,‭SHREVE&CO.‬150POSTSTREETSANFRANCISCOCALIFORNIA94108
‭David Fairclough Fine Jewelers‬,7141 West Central Avenue, Toledo ,Ohio,43617,‭DAVIDFAIRCLOUGHFINEJEWELERS‬7141WESTCENTRALAVENUETOLEDOOHIO43617
‭Ben Bridge Jeweler‬,"450 West Hillcrest Drive, The Oaks Shopping Center", Thousand Oaks ,California,91360,‭BENBRIDGEJEWELER‬450WESTHILLCRESTDRIVETHEOAKSSHOPPINGCENTERTHOUSANDOAKSCALIFORNIA91360
‭Anton's Fine Jewelry‬,10675 Coursey Boulevard, Baton Rouge ,Louisiana,70816,‭ANTON'SFINEJEWELRY‬10675COURSEYBOULEVARDBATONROUGELOUISIANA70816
‭William Barthman Jewelers‬,20 Broad Street, New York ,New York,10005,‭WILLIAMBARTHMANJEWELERS‬20BROADSTREETNEWYORKNEWYORK10005
‭Betteridge Jewelers‬,141 East Meadow Drive, Vail ,Colorado,81657,‭BETTERIDGEJEWELERS‬141EASTMEADOWDRIVEVAILCOLORADO81657
‭N. Fox Jewelers‬,404 Broadway, Saratoga Springs ,New York,12866,‭N.FOXJEWELERS‬404BROADWAYSARATOGASPRINGSNEWYORK12866
‭Paul Medawar Fine Jewelry‬,4518 Plainfield N, EGrand Rap,Michigan,49525,‭PAULMEDAWARFINEJEWELRY‬4518PLAINFIELDNEGRANDRAPMICHIGAN49525
‭Kempf Jewelers‬,336 Fifth Avenue, Indialantic ,Florida,32903,‭KEMPFJEWELERS‬336FIFTHAVENUEINDIALANTICFLORIDA32903
‭Bigham Jewelers‬,"2425 Tamiami Trail North, Suite 101", Naples ,Florida,34103,‭BIGHAMJEWELERS‬2425TAMIAMITRAILNORTHSUITE101NAPLESFLORIDA34103
‭Date & Time‬,5 Concord Road, Sudbury ,Massachusetts,01776,‭DATE&TIME‬5CONCORDROADSUDBURYMASSACHUSETTS01776
‭Fredric H. Rubel Jewelers‬,246 Forest Avenue, Laguna Beach ,California,92651,‭FREDRICH.RUBELJEWELERS‬246FORESTAVENUELAGUNABEACHCALIFORNIA92651
‭Fink's Jewelers‬,3545 Electric Roadat Colonial Avenue, Roanoke ,Virginia,24018,‭FINK'SJEWELERS‬3545ELECTRICROADATCOLONIALAVENUEROANOKEVIRGINIA24018
‭Jewelers Trade Shop‬,26 Palafox Place, Pensacola ,Florida,32502,‭JEWELERSTRADESHOP‬26PALAFOXPLACEPENSACOLAFLORIDA32502
‭Hamra Jewelers‬,"15435 North Scottsdale Road, Suite 130", Scottsdale ,Arizona,85254,‭HAMRAJEWELERS‬15435NORTHSCOTTSDALEROADSUITE130SCOTTSDALEARIZONA85254
‭Mayors Jewelers‬,"2223 North Westshore Blvd, International Plaza, Suite #165", Tampa ,Florida,33607,‭MAYORSJEWELERS‬2223NORTHWESTSHOREBLVDINTERNATIONALPLAZASUITE#165TAMPAFLORIDA33607
‭Bucherer 1888‬,"160 North Gulph Road, Plaza at King of Prussia", King of Prussia ,Pennsylvania,19406,‭BUCHERER1888‬160NORTHGULPHROADPLAZAATKINGOFPRUSSIAKINGOFPRUSSIAPENNSYLVANIA19406
‭Perrywinkle's Fine Jewelry‬,227 Main Street, Burlington ,Vermont,05401,‭PERRYWINKLE'SFINEJEWELRY‬227MAINSTREETBURLINGTONVERMONT05401
‭Rolex Boutique Tourneau‬,"2330 Kalakaua Avenue, International Market Place, Suite #101", Honolulu ,Hawaii,96815,‭ROLEXBOUTIQUETOURNEAU‬2330KALAKAUAAVENUEINTERNATIONALMARKETPLACESUITE#101HONOLULUHAWAII96815
‭Bob Richards Jewelers‬,1696 South Germantown Road, Germantown ,Tennessee,38138,‭BOBRICHARDSJEWELERS‬1696SOUTHGERMANTOWNROADGERMANTOWNTENNESSEE38138
‭Louis Anthony Jewelers‬,"1775 North Highland Road, Norman Centre I, I",Pittsburgh ,Pennsylvania,15241,‭LOUISANTHONYJEWELERS‬1775NORTHHIGHLANDROADNORMANCENTREIIPITTSBURGHPENNSYLVANIA15241
‭Meierotto Jewelers‬,1900 Diamond Parkway, North Kansas City ,Missouri,64116,‭MEIEROTTOJEWELERS‬1900DIAMONDPARKWAYNORTHKANSASCITYMISSOURI64116
‭Floyd & Green‬,515 Silver Bluff Road, Aiken ,South Carolina,29803,‭FLOYD&GREEN‬515SILVERBLUFFROADAIKENSOUTHCAROLINA29803
‭Ben Bridge Jeweler‬,"6600 Topanga Canyon Boulevard, Westfield Topanga, Suite 98", ACanoga Park ,California,91303,‭BENBRIDGEJEWELER‬6600TOPANGACANYONBOULEVARDWESTFIELDTOPANGASUITE98ACANOGAPARKCALIFORNIA91303
‭Ben Bridge Jeweler‬,"1450 Ala Moana Boulevard, Ala Moana Shopping Center, Suite 2700", Honolulu ,Hawaii,96814,‭BENBRIDGEJEWELER‬1450ALAMOANABOULEVARDALAMOANASHOPPINGCENTERSUITE2700HONOLULUHAWAII96814
‭Reeds Jewelers of Niagara Falls‬,4001 Maple Road, Amherst ,New York,14226,‭REEDSJEWELERSOFNIAGARAFALLS‬4001MAPLEROADAMHERSTNEWYORK14226
‭Swiss Watch Gallery‬,1014 A Brea Mall, Brea ,California,92821,‭SWISSWATCHGALLERY‬1014ABREAMALLBREACALIFORNIA92821
‭Ben Bridge Jeweler‬,"3104 Seward Highway, Suite Suite 3", Anchorage ,Alaska,99503,‭BENBRIDGEJEWELER‬3104SEWARDHIGHWAYSUITESUITE3ANCHORAGEALASKA99503
‭Ben Bridge Jeweler‬,"2905 East Skyline Drive, La Encantada Shopping Center, Space #149", Tucson ,Arizona,85718,‭BENBRIDGEJEWELER‬2905EASTSKYLINEDRIVELAENCANTADASHOPPINGCENTERSPACE#149TUCSONARIZONA85718
‭Ben Bridge Jeweler‬,"11601 Century Oaks Terrace, The Domain at Austin, Suite #133", Austin ,Texas,78758,‭BENBRIDGEJEWELER‬11601CENTURYOAKSTERRACETHEDOMAINATAUSTINSUITE#133AUSTINTEXAS78758
‭Mayors Jewelers‬,"7535 North Kendall Drive, Dadeland Mall, Suite 1860", Miami ,Florida,33156,‭MAYORSJEWELERS‬7535NORTHKENDALLDRIVEDADELANDMALLSUITE1860MIAMIFLORIDA33156
‭Rolex Boutique Bachendorf's‬,"85, A Highland Park Village", Dallas ,Texas,75205,‭ROLEXBOUTIQUEBACHENDORF'S‬85AHIGHLANDPARKVILLAGEDALLASTEXAS75205
‭Haltom's Jewelers‬,6102 Camp Bowie Boulevard, Fort Worth ,Texas,76116,‭HALTOM'SJEWELERS‬6102CAMPBOWIEBOULEVARDFORTWORTHTEXAS76116
‭Mayors Jewelers‬,"6000 Glades Road, Town Center at Boca Raton, Suite 1119", Boca Raton ,Florida,33431,‭MAYORSJEWELERS‬6000GLADESROADTOWNCENTERATBOCARATONSUITE1119BOCARATONFLORIDA33431
‭Tapper's Jewelry‬,"2800 West Big Beaver Road, Somerset Collection, Suite 230", T,Michigan,48084,‭TAPPER'SJEWELRY‬2800WESTBIGBEAVERROADSOMERSETCOLLECTIONSUITE230TMICHIGAN48084
‭Orr's Jewelers‬,532 Beaver Street, Sewickley ,Pennsylvania,15143,‭ORR'SJEWELERS‬532BEAVERSTREETSEWICKLEYPENNSYLVANIA15143
‭Davidson & Licht‬,1329 North Main Street, Walnut Creek ,California,94596,‭DAVIDSON&LICHT‬1329NORTHMAINSTREETWALNUTCREEKCALIFORNIA94596
‭Rottermond Jewelers‬,102 East Main Street, Brigh,Michigan,48116,‭ROTTERMONDJEWELERS‬102EASTMAINSTREETBRIGHMICHIGAN48116
‭Watches of Switzerland‬,"500 Route 73 South, The Promenade at Sagemore, Store #D1", Marlton ,New Jersey,08053,‭WATCHESOFSWITZERLAND‬500ROUTE73SOUTHTHEPROMENADEATSAGEMORESTORE#D1MARLTONNEWJERSEY08053
‭Sylvan’s Jewelers‬,1500 Main Street, Columbia ,South Carolina,29201,‭SYLVAN’SJEWELERS‬1500MAINSTREETCOLUMBIASOUTHCAROLINA29201
‭Tara Fine Jewelry‬,"1829 Buford Highway, Suite 2", Buford ,Georgia,30518,‭TARAFINEJEWELRY‬1829BUFORDHIGHWAYSUITE2BUFORDGEORGIA30518
‭Tourneau - Bucherer‬,"3750 Wailea Alanui Drive, The Shops at Wailea, Suite #E, W6", Wailea ,Hawaii,96753,‭TOURNEAU-BUCHERER‬3750WAILEAALANUIDRIVETHESHOPSATWAILEASUITE#EW6WAILEAHAWAII96753
‭Susan Robinson Jewelry‬,6009 South Broadway, Tyler ,Texas,75703,‭SUSANROBINSONJEWELRY‬6009SOUTHBROADWAYTYLERTEXAS75703
‭Rolex Boutique Tourneau‬,"9700 Collins Avenue, Shops at Bal Harbour, Suite 227", Bal Harbour ,Florida,33154,‭ROLEXBOUTIQUETOURNEAU‬9700COLLINSAVENUESHOPSATBALHARBOURSUITE227BALHARBOURFLORIDA33154
